{
  "type": "FeatureCollection",
  "features": [
    {
      "type": "Feature",
      "properties": {
        "norad_id": 35142,
        "name": "FENGYUN 1C DEB",
        "group": "fengyun-1c-debris",
        "lat": -56.07689994048529,
        "lon": 148.23842198912942,
        "alt_km": 866.6002799193411,
        "timestamp": "2025-12-15T20:48:54.170969+00:00",
        "meta_object_name": "FENGYUN 1C DEB",
        "meta_object_id": "1999-025DLW",
        "meta_epoch": "2025-12-10T17:57:11.594304",
        "meta_mean_motion": 13.90505391,
        "meta_eccentricity": 0.01075768,
        "meta_inclination": 99.0447,
        "meta_ra_of_asc_node": 336.9569,
        "meta_arg_of_pericenter": 219.5001,
        "meta_mean_anomaly": 324.8218,
        "meta_ephemeris_type": 0,
        "meta_classification_type": "U",
        "meta_norad_cat_id": 35142,
        "meta_element_set_no": 999,
        "meta_rev_at_epoch": 85661,
        "meta_bstar": 0.00028188701,
        "meta_mean_motion_dot": 3.24e-06,
        "meta_mean_motion_ddot": 0,
        "tle_line1": "1 35142U 99025DLW 25344.74805086  .00000324  00000+0  28189-3 0  9995",
        "tle_line2": "2 35142  99.0447 336.9569 0107576 219.5001 324.8218 13.90505391856615"
      },
      "geometry": {
        "type": "Point",
        "coordinates": [
          148.23842198912942,
          -56.07689994048529
        ]
      }
    },
    {
      "type": "Feature",
      "properties": {
        "norad_id": 35144,
        "name": "FENGYUN 1C DEB",
        "group": "fengyun-1c-debris",
        "lat": -10.010254399873467,
        "lon": -76.18302029141654,
        "alt_km": 717.5239279006,
        "timestamp": "2025-12-15T20:48:54.170979+00:00",
        "meta_object_name": "FENGYUN 1C DEB",
        "meta_object_id": "1999-025DLY",
        "meta_epoch": "2025-12-13T18:34:39.705888",
        "meta_mean_motion": 14.59234078,
        "meta_eccentricity": 0.00266496,
        "meta_inclination": 98.6989,
        "meta_ra_of_asc_node": 103.1732,
        "meta_arg_of_pericenter": 358.0955,
        "meta_mean_anomaly": 2.0137,
        "meta_ephemeris_type": 0,
        "meta_classification_type": "U",
        "meta_norad_cat_id": 35144,
        "meta_element_set_no": 999,
        "meta_rev_at_epoch": 65228,
        "meta_bstar": 0.0028672174,
        "meta_mean_motion_dot": 0.0001357,
        "meta_mean_motion_ddot": 0,
        "tle_line1": "1 35144U 99025DLY 25347.77407067  .00013570  00000+0  28672-2 0  9993",
        "tle_line2": "2 35144  98.6989 103.1732 0026649 358.0955   2.0137 14.59234078652286"
      },
      "geometry": {
        "type": "Point",
        "coordinates": [
          -76.18302029141654,
          -10.010254399873467
        ]
      }
    },
    {
      "type": "Feature",
      "properties": {
        "norad_id": 35147,
        "name": "FENGYUN 1C DEB",
        "group": "fengyun-1c-debris",
        "lat": -10.215427560065484,
        "lon": -118.03755074598675,
        "alt_km": 631.9088976808507,
        "timestamp": "2025-12-15T20:48:54.170990+00:00",
        "meta_object_name": "FENGYUN 1C DEB",
        "meta_object_id": "1999-025DMB",
        "meta_epoch": "2025-12-14T11:22:48.077184",
        "meta_mean_motion": 14.74368233,
        "meta_eccentricity": 0.00274446,
        "meta_inclination": 99.4866,
        "meta_ra_of_asc_node": 62.0604,
        "meta_arg_of_pericenter": 193.476,
        "meta_mean_anomaly": 166.5714,
        "meta_ephemeris_type": 0,
        "meta_classification_type": "U",
        "meta_norad_cat_id": 35147,
        "meta_element_set_no": 999,
        "meta_rev_at_epoch": 74330,
        "meta_bstar": 0.0027922421,
        "meta_mean_motion_dot": 0.00018603,
        "meta_mean_motion_ddot": 0,
        "tle_line1": "1 35147U 99025DMB 25348.47416756  .00018603  00000+0  27922-2 0  9998",
        "tle_line2": "2 35147  99.4866  62.0604 0027444 193.4760 166.5714 14.74368233743301"
      },
      "geometry": {
        "type": "Point",
        "coordinates": [
          -118.03755074598675,
          -10.215427560065484
        ]
      }
    },
    {
      "type": "Feature",
      "properties": {
        "norad_id": 35152,
        "name": "FENGYUN 1C DEB",
        "group": "fengyun-1c-debris",
        "lat": -74.96922989881662,
        "lon": -47.50661093230424,
        "alt_km": 1027.511624261554,
        "timestamp": "2025-12-15T20:48:54.171000+00:00",
        "meta_object_name": "FENGYUN 1C DEB",
        "meta_object_id": "1999-025DMG",
        "meta_epoch": "2025-12-09T06:32:50.767584",
        "meta_mean_motion": 13.76426124,
        "meta_eccentricity": 0.019481,
        "meta_inclination": 99.8191,
        "meta_ra_of_asc_node": 165.8523,
        "meta_arg_of_pericenter": 24.4192,
        "meta_mean_anomaly": 336.6036,
        "meta_ephemeris_type": 0,
        "meta_classification_type": "U",
        "meta_norad_cat_id": 35152,
        "meta_element_set_no": 999,
        "meta_rev_at_epoch": 62145,
        "meta_bstar": 0.0008876,
        "meta_mean_motion_dot": 9.5e-06,
        "meta_mean_motion_ddot": 0,
        "tle_line1": "1 35152U 99025DMG 25343.27280981  .00000950  00000+0  88760-3 0  9990",
        "tle_line2": "2 35152  99.8191 165.8523 0194810  24.4192 336.6036 13.76426124621451"
      },
      "geometry": {
        "type": "Point",
        "coordinates": [
          -47.50661093230424,
          -74.96922989881662
        ]
      }
    },
    {
      "type": "Feature",
      "properties": {
        "norad_id": 35153,
        "name": "FENGYUN 1C DEB",
        "group": "fengyun-1c-debris",
        "lat": 43.89857834854123,
        "lon": 70.65007819323414,
        "alt_km": 587.1391247795136,
        "timestamp": "2025-12-15T20:48:54.171010+00:00",
        "meta_object_name": "FENGYUN 1C DEB",
        "meta_object_id": "1999-025DMH",
        "meta_epoch": "2025-12-13T11:11:19.290336",
        "meta_mean_motion": 14.73743597,
        "meta_eccentricity": 0.01712095,
        "meta_inclination": 98.9023,
        "meta_ra_of_asc_node": 239.3405,
        "meta_arg_of_pericenter": 80.9224,
        "meta_mean_anomaly": 281.131,
        "meta_ephemeris_type": 0,
        "meta_classification_type": "U",
        "meta_norad_cat_id": 35153,
        "meta_element_set_no": 999,
        "meta_rev_at_epoch": 97228,
        "meta_bstar": 0.00060411508,
        "meta_mean_motion_dot": 4.926e-05,
        "meta_mean_motion_ddot": 0,
        "tle_line1": "1 35153U 99025DMH 25347.46619549  .00004926  00000+0  60412-3 0  9993",
        "tle_line2": "2 35153  98.9023 239.3405 0171209  80.9224 281.1310 14.73743597972285"
      },
      "geometry": {
        "type": "Point",
        "coordinates": [
          70.65007819323414,
          43.89857834854123
        ]
      }
    },
    {
      "type": "Feature",
      "properties": {
        "norad_id": 35154,
        "name": "FENGYUN 1C DEB",
        "group": "fengyun-1c-debris",
        "lat": -3.054288651638181,
        "lon": -68.96367104813662,
        "alt_km": 942.8728833299774,
        "timestamp": "2025-12-15T20:48:54.171021+00:00",
        "meta_object_name": "FENGYUN 1C DEB",
        "meta_object_id": "1999-025DMJ",
        "meta_epoch": "2025-12-14T01:39:24.585984",
        "meta_mean_motion": 14.18900379,
        "meta_eccentricity": 0.01792994,
        "meta_inclination": 99.4217,
        "meta_ra_of_asc_node": 109.6332,
        "meta_arg_of_pericenter": 38.7298,
        "meta_mean_anomaly": 322.6573,
        "meta_ephemeris_type": 0,
        "meta_classification_type": "U",
        "meta_norad_cat_id": 35154,
        "meta_element_set_no": 999,
        "meta_rev_at_epoch": 64596,
        "meta_bstar": 0.00037357522,
        "meta_mean_motion_dot": 8.63e-06,
        "meta_mean_motion_ddot": 0,
        "tle_line1": "1 35154U 99025DMJ 25348.06903456  .00000863  00000+0  37358-3 0  9993",
        "tle_line2": "2 35154  99.4217 109.6332 0179299  38.7298 322.6573 14.18900379645960"
      },
      "geometry": {
        "type": "Point",
        "coordinates": [
          -68.96367104813662,
          -3.054288651638181
        ]
      }
    },
    {
      "type": "Feature",
      "properties": {
        "norad_id": 35155,
        "name": "FENGYUN 1C DEB",
        "group": "fengyun-1c-debris",
        "lat": -52.834689794941156,
        "lon": 12.789720877921292,
        "alt_km": 843.3199960539059,
        "timestamp": "2025-12-15T20:48:54.171031+00:00",
        "meta_object_name": "FENGYUN 1C DEB",
        "meta_object_id": "1999-025DMK",
        "meta_epoch": "2025-12-13T11:32:29.448096",
        "meta_mean_motion": 14.19285709,
        "meta_eccentricity": 0.00260991,
        "meta_inclination": 98.5012,
        "meta_ra_of_asc_node": 359.121,
        "meta_arg_of_pericenter": 70.7543,
        "meta_mean_anomaly": 289.6454,
        "meta_ephemeris_type": 0,
        "meta_classification_type": "U",
        "meta_norad_cat_id": 35155,
        "meta_element_set_no": 999,
        "meta_rev_at_epoch": 72724,
        "meta_bstar": 0.00090034288,
        "meta_mean_motion_dot": 1.854e-05,
        "meta_mean_motion_ddot": 0,
        "tle_line1": "1 35155U 99025DMK 25347.48089639  .00001854  00000+0  90034-3 0  9998",
        "tle_line2": "2 35155  98.5012 359.1210 0026099  70.7543 289.6454 14.19285709727245"
      },
      "geometry": {
        "type": "Point",
        "coordinates": [
          12.789720877921292,
          -52.834689794941156
        ]
      }
    }
  ]
}